[{"OBJECT_NAME":"STARLINK-31903","OBJECT_ID":"2024-097L","EPOCH":"2026-03-09T12:47:10.501152","MEAN_MOTION":15.27567682,"ECCENTRICITY":8.479e-5,"INCLINATION":43.0009,"RA_OF_ASC_NODE":268.2455,"ARG_OF_PERICENTER":264.0258,"MEAN_ANOMALY":96.0497,"EPHEMERIS_TYPE":0,"CLASSIFICATION_TYPE":"U","NORAD_CAT_ID":59845,"ELEMENT_SET_NO":999,"REV_AT_EPOCH":10197,"BSTAR":1.9519105e-5,"MEAN_MOTION_DOT":2.75e-6,"MEAN_MOTION_DDOT":0},{"OBJECT_NAME":"FLOCK 4G-6","OBJECT_ID":"2025-009BD","EPOCH":"2026-03-09T17:03:16.973568","MEAN_MOTION":15.27432125,"ECCENTRICITY":0.00023795,"INCLINATION":97.398,"RA_OF_ASC_NODE":150.7943,"ARG_OF_PERICENTER":348.2637,"MEAN_ANOMALY":11.8546,"EPHEMERIS_TYPE":0,"CLASSIFICATION_TYPE":"U","NORAD_CAT_ID":62660,"ELEMENT_SET_NO":999,"REV_AT_EPOCH":12130,"BSTAR":0.00045909501,"MEAN_MOTION_DOT":0.00012261,"MEAN_MOTION_DDOT":0}]
